NORAD_CAT_ID,OBJECT_NAME,OBJECT_TYPE,EPOCH,MEAN_MOTION,ECCENTRICITY,INCLINATION,RA_OF_ASC_NODE,ARG_OF_PERICENTER,MEAN_ANOMALY,BSTAR,MEAN_MOTION_DOT,MEAN_MOTION_DDOT,TLE_LINE0,TLE_LINE1,TLE_LINE2,SEMIMAJOR_AXIS,PERIOD,APOGEE,PERIGEE,DECAYED
53248.0,STARLINK-4135,PAYLOAD,2022-10-12 14:00:01,15.08883845,0.0001453,53.2179,24.1328,48.2721,350.6625,-0.0093292999999999,-0.00145945,0.0,0 STARLINK-4135,1 53248U 22086G   22285.58334491 -.00145945  00000-0 -93293-2 0  9994,2 53248  53.2179  24.1328 0001453  48.2721 350.6625 15.08883845 12996,6917.746,95.435,540.617,538.606,0.0
53248.0,STARLINK-4135,PAYLOAD,2022-10-12 22:00:00,15.08755061,0.000129,53.2173,22.631,57.1449,353.384,0.00772,0.00124464,0.0,0 STARLINK-4135,1 53248U 22086G   22285.91667824  .00124464  00000-0  77200-2 0  9991,2 53248  53.2173  22.6310 0001290  57.1449 353.3840 15.08755061  1309,6918.14,95.443,540.8969999999998,539.113,0.0
53248.0,STARLINK-4135,PAYLOAD,2022-10-13 06:00:00,15.0878101,0.0001401,53.2177,21.1389,53.7017,8.3649,0.0063117,0.00101448,0.0,0 STARLINK-4135,1 53248U 22086G   22286.25001157  .00101448  00000-0  63117-2 0  9999,2 53248  53.2177  21.1389 0001401  53.7017   8.3649 15.08781010 13096,6918.061,95.441,540.895,538.956,0.0
53248.0,STARLINK-4135,PAYLOAD,2022-10-13 14:00:01,15.08910716,0.0001584,53.2178,19.6401,45.4044,28.2168,-0.006289,-0.00099194,0.0,0 STARLINK-4135,1 53248U 22086G   22286.58334491 -.00099194  00000-0 -62890-2 0  9998,2 53248  53.2178  19.6401 0001584  45.4044  28.2168 15.08910716  1309,6917.6640000000025,95.433,540.625,538.433,0.0
53248.0,STARLINK-4135,PAYLOAD,2022-10-13 20:00:01,15.08838081,0.0001536,53.2172,18.5136,42.0826,310.3447,-0.00018767,-3.273e-05,0.0,0 STARLINK-4135,1 53248U 22086G   22286.83335648 -.00003273  00000-0 -18767-3 0  9999,2 53248  53.2172  18.5136 0001536  42.0826 310.3447 15.08838081 13182,6917.886,95.438,540.814,538.689,0.0
53248.0,STARLINK-4135,PAYLOAD,2022-10-13 22:00:00,15.08837397,0.0001526,53.2174,18.1388,43.4964,41.7667,-9.123e-05,-1.74e-05,0.0,0 STARLINK-4135,1 53248U 22086G   22286.91667824 -.00001740  00000-0 -91230-4 0  9996,2 53248  53.2174  18.1388 0001526  43.4964  41.7667 15.08837397  1305,6917.888000000001,95.438,540.809,538.698,0.0
53248.0,STARLINK-4135,PAYLOAD,2022-10-14 14:00:01,15.0884783,0.0001553,53.2176,15.1501,42.3099,66.1301,-0.001141,-0.00018405,0.0,0 STARLINK-4135,1 53248U 22086G   22287.58334491 -.00018405  00000-0 -11410-2 0  9997,2 53248  53.2176  15.1501 0001553  42.3099  66.1301 15.08847830  1307,6917.856,95.437,540.7959999999998,538.6469999999998,0.0
53248.0,STARLINK-4135,PAYLOAD,2022-10-14 20:00:01,15.0883848,0.000154,53.2173,14.0242,37.8209,349.3202,-0.00021355,-3.685e-05,0.0,0 STARLINK-4135,1 53248U 22086G   22287.83334491 -.00003685  00000-0 -21355-3 0  9999,2 53248  53.2173  14.0242 0001540  37.8209 349.3202 15.08838480  1309,6917.885,95.438,540.815,538.685,0.0
53248.0,STARLINK-4135,PAYLOAD,2022-10-15 06:00:00,15.08886088,0.0001525,53.217,12.1552,52.9533,78.6506,-0.0046103,-0.0007301,0.0,0 STARLINK-4135,1 53248U 22086G   22288.25001157 -.00073010  00000-0 -46103-2 0  9992,2 53248  53.2170  12.1552 0001525  52.9533  78.6506 15.08886088 13398,6917.74,95.435,540.659,538.55,0.0
53248.0,STARLINK-4135,PAYLOAD,2022-10-15 14:00:01,15.08826882,0.0001691,53.2169,10.6725,46.6644,96.5973,0.00085262,0.00013303,0.0,0 STARLINK-4135,1 53248U 22086G   22288.58334491  .00013303  00000-0  85262-3 0  9995,2 53248  53.2169  10.6725 0001691  46.6644  96.5973 15.08826882 13447,6917.92,95.438,540.955,538.616,0.0
53248.0,STARLINK-4135,PAYLOAD,2022-10-15 22:00:01,15.08858914,0.0001626,53.2168,9.1749,47.0716,107.8261,-0.0022518,-0.00035966,0.0,0 STARLINK-4135,1 53248U 22086G   22288.91668981 -.00035966  00000-0 -22518-2 0  9991,2 53248  53.2168   9.1749 0001626  47.0716 107.8261 15.08858914  1307,6917.823,95.436,540.812,538.563,0.0
53248.0,STARLINK-4135,PAYLOAD,2022-10-16 14:00:01,15.0880802,0.0001789,53.2171,6.1833,45.2848,132.7514,0.0013798,0.00021721,0.0,0 STARLINK-4135,1 53248U 22086G   22289.58334491  .00021721  00000-0  13798-2 0  9993,2 53248  53.2171   6.1833 0001789  45.2848 132.7514 15.08808020 13593,6917.978,95.44,541.081,538.606,0.0
53248.0,STARLINK-4135,PAYLOAD,2022-10-16 22:00:00,15.08836344,0.0001675999999999,53.2173,4.6834,45.7021,143.8994,-0.000411,-6.823e-05,0.0,0 STARLINK-4135,1 53248U 22086G   22289.91667824 -.00006823  00000-0 -41100-3 0  9996,2 53248  53.2173   4.6834 0001676  45.7021 143.8994 15.08836344  1303,6917.892,95.438,540.9159999999998,538.597,0.0
53248.0,STARLINK-4135,PAYLOAD,2022-10-17 14:00:01,15.08823556,0.000196,53.2173,1.6926,46.3768,166.4383,0.0031547,0.00050255,0.0,0 STARLINK-4135,1 53248U 22086G   22290.58334491  .00050255  00000-0  31547-2 0  9991,2 53248  53.2173   1.6926 0001960  46.3768 166.4383 15.08823556  1307,6917.931,95.439,541.1519999999998,538.44,0.0
53248.0,STARLINK-4135,PAYLOAD,2022-10-17 22:00:00,15.08849963,0.000176,53.2177,0.195,46.8431,177.5462,-0.0024143,-0.00038517,0.0,0 STARLINK-4135,1 53248U 22086G   22290.91667824 -.00038517  00000-0 -24143-2 0  9990,2 53248  53.2177   0.1950 0001760  46.8431 177.5462 15.08849963 13799,6917.85,95.437,540.932,538.497,0.0
53248.0,STARLINK-4135,PAYLOAD,2022-10-18 14:00:01,15.08806305,0.0001849,53.2179,357.205,42.2902,205.2838,0.0021414999999999,0.00033927,0.0,0 STARLINK-4135,1 53248U 22086G   22291.58334491  .00033927  00000-0  21415-2 0  9992,2 53248  53.2179 357.2050 0001849  42.2902 205.2838 15.08806305 13899,6917.983,95.44,541.128,538.569,0.0
53248.0,STARLINK-4135,PAYLOAD,2022-10-18 22:00:00,15.08858726,0.000167,53.218,355.7072,43.3618,215.8126,-0.0028414,-0.00045248,0.0,0 STARLINK-4135,1 53248U 22086G   22291.91667824 -.00045248  00000-0 -28414-2 0  9995,2 53248  53.2180 355.7072 0001670  43.3618 215.8126 15.08858726  1300,6917.823,95.436,540.8430000000002,538.533,0.0
53248.0,STARLINK-4135,PAYLOAD,2022-10-19 14:00:01,15.08826769,0.0001924,53.218,352.7161,43.1916,239.1751,0.0021444,0.00033993,0.0,0 STARLINK-4135,1 53248U 22086G   22292.58334491  .00033993  00000-0  21444-2 0  9998,2 53248  53.2180 352.7161 0001924  43.1916 239.1751 15.08826769 14058,6917.920999999999,95.438,541.117,538.455,0.0
53248.0,STARLINK-4135,PAYLOAD,2022-10-19 22:00:00,15.08887324,0.000181,53.2175,351.2106,43.5079,250.4681,-0.011792,-0.00183458,0.0,0 STARLINK-4135,1 53248U 22086G   22292.91667824 -.00183458  00000-0 -11792-1 0  9992,2 53248  53.2175 351.2106 0001810  43.5079 250.4681 15.08887324  1309,6917.736,95.435,540.8530000000002,538.349,0.0
53248.0,STARLINK-4135,PAYLOAD,2022-10-20 06:00:00,15.08861048,0.0001761,53.218,349.7221,50.2207,255.3299,-0.0031043,-0.00049383,0.0,0 STARLINK-4135,1 53248U 22086G   22293.25001157 -.00049383  00000-0 -31043-2 0  9991,2 53248  53.2180 349.7221 0001761  50.2207 255.3299 15.08861048 14159,6917.816,95.436,540.899,538.4630000000002,0.0
53248.0,STARLINK-4135,PAYLOAD,2022-10-20 14:00:01,15.08799966,0.0001931,53.2174,348.2251,43.4808,273.6761,0.0033546999999999,0.00053449,0.0,0 STARLINK-4135,1 53248U 22086G   22293.58334491  .00053449  00000-0  33547-2 0  9994,2 53248  53.2174 348.2251 0001931  43.4808 273.6761 15.08799966  1308,6918.003000000002,95.44,541.2040000000002,538.5319999999998,0.0
53248.0,STARLINK-4135,PAYLOAD,2022-10-20 22:00:00,15.08821054,0.0001740999999999,53.2176,346.7279,47.5623,281.1555,0.00086775,0.00013542,0.0,0 STARLINK-4135,1 53248U 22086G   22293.91667824  .00013542  00000-0  86775-3 0  9992,2 53248  53.2176 346.7279 0001741  47.5623 281.1555 15.08821054  1301,6917.938,95.439,541.008,538.599,0.0
53248.0,STARLINK-4135,PAYLOAD,2022-10-21 14:00:01,15.08842536,0.0001911,53.2171,343.7372,43.6807,308.2343,0.0017535999999999,0.00027733,0.0,0 STARLINK-4135,1 53248U 22086G   22294.58334491  .00027733  00000-0  17536-2 0  9992,2 53248  53.2171 343.7372 0001911  43.6807 308.2343 15.08842536  1301,6917.873000000001,95.437,541.06,538.4159999999998,0.0
53248.0,STARLINK-4135,PAYLOAD,2022-10-21 22:00:00,15.08825343,0.0001713,53.217,342.2405,47.5045,316.0105,0.00082441,0.00012852,0.0,0 STARLINK-4135,1 53248U 22086G   22294.91667824  .00012852  00000-0  82441-3 0  9992,2 53248  53.2170 342.2405 0001713  47.5045 316.0105 15.08825343  1308,6917.925,95.438,540.975,538.605,0.0
53248.0,STARLINK-4135,PAYLOAD,2022-10-22 14:00:01,15.08798551,0.0001989,53.2166,339.2496,45.1005,341.5804,0.0033347,0.00053124,0.0,0 STARLINK-4135,1 53248U 22086G   22295.58334491  .00053124  00000-0  33347-2 0  9994,2 53248  53.2166 339.2496 0001989  45.1005 341.5804 15.08798551 14509,6918.007,95.44,541.248,538.496,0.0
53248.0,STARLINK-4135,PAYLOAD,2022-10-22 22:00:00,15.08821656,0.0001841999999999,53.2165,337.7515,49.8182,348.4435,0.0024342,0.00038646,0.0,0 STARLINK-4135,1 53248U 22086G   22295.91667824  .00038646  00000-0  24342-2 0  9997,2 53248  53.2165 337.7515 0001842  49.8182 348.4435 15.08821656  1301,6917.936,95.439,541.076,538.5269999999998,0.0
53248.0,STARLINK-4135,PAYLOAD,2022-10-23 14:00:01,15.08852858,0.0002041,53.2163,334.7604,44.2074,17.2648,0.001537,0.00024267,0.0,0 STARLINK-4135,1 53248U 22086G   22296.58334491  .00024267  00000-0  15370-2 0  9997,2 53248  53.2163 334.7604 0002041  44.2074  17.2648 15.08852858  1301,6917.840999999999,95.437,541.118,538.294,0.0
53248.0,STARLINK-4135,PAYLOAD,2022-10-23 22:00:00,15.08844926,0.0001827,53.2164,333.2621,46.9549,26.1488,-0.0012092,-0.00019484,0.0,0 STARLINK-4135,1 53248U 22086G   22296.91667824 -.00019484  00000-0 -12092-2 0  9998,2 53248  53.2164 333.2621 0001827  46.9549  26.1488 15.08844926  1300,6917.865,95.437,540.994,538.466,0.0
53248.0,STARLINK-4135,PAYLOAD,2022-10-24 14:00:01,15.08763361,0.0002008999999999,53.2162,330.271,41.0046,55.2622,0.0030424,0.00048363,0.0,0 STARLINK-4135,1 53248U 22086G   22297.58334491  .00048363  00000-0  30424-2 0  9998,2 53248  53.2162 330.2710 0002009  41.0046  55.2622 15.08763361 14800,6918.115,95.442,541.37,538.59,0.0
